{
 "type": "FeatureCollection",
 "features": [
  {
   "type": "Feature",
   "geometry": {
    "type": "Polygon",
    "coordinates": [
     [
      [
       38.0,
       -3.9166667
      ],
      [
       40.0,
       -3.9166667
      ],
      [
       40.0,
       4.05
      ],
      [
       38.0,
       4.05
      ],
      [
       38.0,
       -3.9166667
      ]
     ]
    ]
   },
   "properties": {
    "extent": "-3.9166667/4.05 38.0/40.0",
    "ocr_repair_enabled": true,
    "_doc2geo": {
     "source_crs": "WGS 84",
     "transform": "none",
     "accuracy_m": null,
     "confidence": 0.396,
     "page": 20,
     "origin": "bbox:page 20"
    }
   }
  },
  {
   "type": "Feature",
   "geometry": {
    "type": "Polygon",
    "coordinates": [
     [
      [
       39.0,
       -4.6666667
      ],
      [
       39.8333333,
       -4.6666667
      ],
      [
       39.8333333,
       -3.75
      ],
      [
       39.0,
       -3.75
      ],
      [
       39.0,
       -4.6666667
      ]
     ]
    ]
   },
   "properties": {
    "extent": "-4.6666667/-3.75 39.0/39.8333333",
    "ocr_repair_enabled": true,
    "_doc2geo": {
     "source_crs": "WGS 84",
     "transform": "none",
     "accuracy_m": null,
     "confidence": 0.393,
     "page": 21,
     "origin": "bbox:page 21"
    }
   }
  },
  {
   "type": "Feature",
   "geometry": {
    "type": "Polygon",
    "coordinates": [
     [
      [
       39.0,
       -4.0
      ],
      [
       40.0,
       -4.0
      ],
      [
       40.0,
       -2.5
      ],
      [
       39.0,
       -2.5
      ],
      [
       39.0,
       -4.0
      ]
     ]
    ]
   },
   "properties": {
    "extent": "-4.0/-2.5 39.0/40.0",
    "ocr_repair_enabled": true,
    "_doc2geo": {
     "source_crs": "WGS 84",
     "transform": "none",
     "accuracy_m": null,
     "confidence": 0.393,
     "page": 21,
     "origin": "bbox:page 21"
    }
   }
  },
  {
   "type": "Feature",
   "geometry": {
    "type": "Polygon",
    "coordinates": [
     [
      [
       38.0,
       -4.0
      ],
      [
       38.5,
       -4.0
      ],
      [
       38.5,
       -2.5
      ],
      [
       38.0,
       -2.5
      ],
      [
       38.0,
       -4.0
      ]
     ]
    ]
   },
   "properties": {
    "extent": "-4.0/-2.5 38.0/38.5",
    "ocr_repair_enabled": true,
    "_doc2geo": {
     "source_crs": "WGS 84",
     "transform": "none",
     "accuracy_m": null,
     "confidence": 0.399,
     "page": 22,
     "origin": "bbox:page 22"
    }
   }
  },
  {
   "type": "Feature",
   "geometry": {
    "type": "Polygon",
    "coordinates": [
     [
      [
       29.0,
       -4.5
      ],
      [
       35.0,
       -4.5
      ],
      [
       35.0,
       -2.0
      ],
      [
       29.0,
       -2.0
      ],
      [
       29.0,
       -4.5
      ]
     ]
    ]
   },
   "properties": {
    "extent": "-4.5/-2.0 29.0/35.0",
    "ocr_repair_enabled": true,
    "unreadable_values": 2,
    "_doc2geo": {
     "source_crs": "WGS 84",
     "transform": "none",
     "accuracy_m": null,
     "confidence": 0.38,
     "page": 23,
     "origin": "bbox:page 23"
    }
   }
  },
  {
   "type": "Feature",
   "geometry": {
    "type": "Polygon",
    "coordinates": [
     [
      [
       36.0,
       -8.0
      ],
      [
       40.0,
       -8.0
      ],
      [
       40.0,
       -3.0
      ],
      [
       36.0,
       -3.0
      ],
      [
       36.0,
       -8.0
      ]
     ]
    ]
   },
   "properties": {
    "extent": "-8.0/-3.0 36.0/40.0",
    "ocr_repair_enabled": true,
    "_doc2geo": {
     "source_crs": "WGS 84",
     "transform": "none",
     "accuracy_m": null,
     "confidence": 0.376,
     "page": 24,
     "origin": "bbox:page 24"
    }
   }
  },
  {
   "type": "Feature",
   "geometry": {
    "type": "Polygon",
    "coordinates": [
     [
      [
       38.25,
       -3.5
      ],
      [
       38.5,
       -3.5
      ],
      [
       38.5,
       -3.25
      ],
      [
       38.25,
       -3.25
      ],
      [
       38.25,
       -3.5
      ]
     ]
    ]
   },
   "properties": {
    "extent": "-3.5/-3.25 38.25/38.5",
    "ocr_repair_enabled": true,
    "_doc2geo": {
     "source_crs": "WGS 84",
     "transform": "none",
     "accuracy_m": null,
     "confidence": 0.376,
     "page": 24,
     "origin": "bbox:page 24"
    }
   }
  },
  {
   "type": "Feature",
   "geometry": {
    "type": "Polygon",
    "coordinates": [
     [
      [
       39.5,
       -6.0
      ],
      [
       39.6666667,
       -6.0
      ],
      [
       39.6666667,
       -3.5
      ],
      [
       39.5,
       -3.5
      ],
      [
       39.5,
       -6.0
      ]
     ]
    ]
   },
   "properties": {
    "extent": "-6.0/-3.5 39.5/39.6666667",
    "ocr_repair_enabled": true,
    "_doc2geo": {
     "source_crs": "WGS 84",
     "transform": "none",
     "accuracy_m": null,
     "confidence": 0.366,
     "page": 25,
     "origin": "bbox:page 25"
    }
   }
  },
  {
   "type": "Feature",
   "geometry": {
    "type": "Polygon",
    "coordinates": [
     [
      [
       39.5,
       -4.0
      ],
      [
       39.6666667,
       -4.0
      ],
      [
       39.6666667,
       -3.5
      ],
      [
       39.5,
       -3.5
      ],
      [
       39.5,
       -4.0
      ]
     ]
    ]
   },
   "properties": {
    "extent": "-4.0/-3.5 39.5/39.6666667",
    "ocr_repair_enabled": true,
    "_doc2geo": {
     "source_crs": "WGS 84",
     "transform": "none",
     "accuracy_m": null,
     "confidence": 0.366,
     "page": 25,
     "origin": "bbox:page 25"
    }
   }
  },
  {
   "type": "Feature",
   "geometry": {
    "type": "Polygon",
    "coordinates": [
     [
      [
       37.0,
       -3.5
      ],
      [
       39.0,
       -3.5
      ],
      [
       39.0,
       -2.0
      ],
      [
       37.0,
       -2.0
      ],
      [
       37.0,
       -3.5
      ]
     ]
    ]
   },
   "properties": {
    "extent": "-3.5/-2.0 37.0/39.0",
    "ocr_repair_enabled": true,
    "_doc2geo": {
     "source_crs": "WGS 84",
     "transform": "none",
     "accuracy_m": null,
     "confidence": 0.369,
     "page": 26,
     "origin": "bbox:page 26"
    }
   }
  },
  {
   "type": "Feature",
   "geometry": {
    "type": "Polygon",
    "coordinates": [
     [
      [
       39.0,
       -5.0
      ],
      [
       40.0,
       -5.0
      ],
      [
       40.0,
       -3.0
      ],
      [
       39.0,
       -3.0
      ],
      [
       39.0,
       -5.0
      ]
     ]
    ]
   },
   "properties": {
    "extent": "-5.0/-3.0 39.0/40.0",
    "ocr_repair_enabled": true,
    "_doc2geo": {
     "source_crs": "WGS 84",
     "transform": "none",
     "accuracy_m": null,
     "confidence": 0.369,
     "page": 26,
     "origin": "bbox:page 26"
    }
   }
  },
  {
   "type": "Feature",
   "geometry": {
    "type": "Polygon",
    "coordinates": [
     [
      [
       34.0,
       -4.5
      ],
      [
       42.0,
       -4.5
      ],
      [
       42.0,
       4.5
      ],
      [
       34.0,
       4.5
      ],
      [
       34.0,
       -4.5
      ]
     ]
    ]
   },
   "properties": {
    "extent": "-4.5/4.5 34.0/42.0",
    "ocr_repair_enabled": true,
    "_doc2geo": {
     "source_crs": "WGS 84",
     "transform": "none",
     "accuracy_m": null,
     "confidence": 0.359,
     "page": 28,
     "origin": "bbox:page 28"
    }
   }
  },
  {
   "type": "Feature",
   "geometry": {
    "type": "Polygon",
    "coordinates": [
     [
      [
       39.5,
       -4.0833333
      ],
      [
       39.6666667,
       -4.0833333
      ],
      [
       39.6666667,
       4.5
      ],
      [
       39.5,
       4.5
      ],
      [
       39.5,
       -4.0833333
      ]
     ]
    ]
   },
   "properties": {
    "extent": "-4.0833333/4.5 39.5/39.6666667",
    "ocr_repair_enabled": true,
    "unreadable_values": 2,
    "_doc2geo": {
     "source_crs": "WGS 84",
     "transform": "none",
     "accuracy_m": null,
     "confidence": 0.352,
     "page": 29,
     "origin": "bbox:page 29"
    }
   }
  },
  {
   "type": "Feature",
   "geometry": {
    "type": "Polygon",
    "coordinates": [
     [
      [
       36.0,
       -4.0
      ],
      [
       38.0,
       -4.0
      ],
      [
       38.0,
       -0.5
      ],
      [
       36.0,
       -0.5
      ],
      [
       36.0,
       -4.0
      ]
     ]
    ]
   },
   "properties": {
    "extent": "-4.0/-0.5 36.0/38.0",
    "ocr_repair_enabled": true,
    "_doc2geo": {
     "source_crs": "WGS 84",
     "transform": "none",
     "accuracy_m": null,
     "confidence": 0.381,
     "page": 30,
     "origin": "bbox:page 30"
    }
   }
  },
  {
   "type": "Feature",
   "geometry": {
    "type": "Polygon",
    "coordinates": [
     [
      [
       38.5,
       -48.5
      ],
      [
       39.6666667,
       -48.5
      ],
      [
       39.6666667,
       -4.0
      ],
      [
       38.5,
       -4.0
      ],
      [
       38.5,
       -48.5
      ]
     ]
    ]
   },
   "properties": {
    "extent": "-48.5/-4.0 38.5/39.6666667",
    "ocr_repair_enabled": true,
    "_doc2geo": {
     "source_crs": "WGS 84",
     "transform": "none",
     "accuracy_m": null,
     "confidence": 0.364,
     "page": 31,
     "origin": "bbox:page 31"
    }
   }
  }
 ]
}